{"type": "FeatureCollection", "features": [ {"type": "Feature", "properties": {"norad_id": 44543, "name": "BEIDOU-3 M23 (C45)", "group": "beidou", "lat": 18.989600312017874, "lon": -5.6370570286241195, "alt_km": 21537.078186514773, "timestamp": "2025-12-22T22:44:21.240967+00:00", "meta": {"OBJECT_NAME": "BEIDOU-3 M23 (C45)", "OBJECT_ID": "2019-061B", "EPOCH": "2025-12-22T04:16:38.631360", "MEAN_MOTION": 1.86227761, "ECCENTRICITY": 0.00060882, "INCLINATION": 54.3995, "RA_OF_ASC_NODE": 188.6659, "ARG_OF_PERICENTER": 26.1092, "MEAN_ANOMALY": 334.4978, "EPHEMERIS_TYPE": 0, "CLASSIFICATION_TYPE": "U", "NORAD_CAT_ID": 44543, "ELEMENT_SET_NO": 999, "REV_AT_EPOCH": 4250, "BSTAR": 0, "MEAN_MOTION_DOT": 9.4e-07, "MEAN_MOTION_DDOT": 0}, "tle": {"line1": "1 44543U 19061B   25356.17822490  .00000094  00000+0  00000+0 0  9992", "line2": "2 44543  54.3995 188.6659 0006088  26.1092 334.4978  1.86227761 42501"}}, "geometry": {"type": "Point", "coordinates": [-5.6370570286241195, 18.989600312017874]}}, {"type": "Feature", "properties": {"norad_id": 44793, "name": "BEIDOU-3 M22 (C44)", "group": "beidou", "lat": -7.428152330184959, "lon": -59.405178520158664, "alt_km": 21514.911061194824, "timestamp": "2025-12-22T22:44:21.240979+00:00", "meta": {"OBJECT_NAME": "BEIDOU-3 M22 (C44)", "OBJECT_ID": "2019-078A", "EPOCH": "2025-12-21T21:17:38.154624", "MEAN_MOTION": 1.86232205, "ECCENTRICITY": 0.00060942, "INCLINATION": 54.1, "RA_OF_ASC_NODE": 306.0655, "ARG_OF_PERICENTER": 24.0092, "MEAN_ANOMALY": 336.0189, "EPHEMERIS_TYPE": 0, "CLASSIFICATION_TYPE": "U", "NORAD_CAT_ID": 44793, "ELEMENT_SET_NO": 999, "REV_AT_EPOCH": 4134, "BSTAR": 0, "MEAN_MOTION_DOT": -5.9e-07, "MEAN_MOTION_DDOT": 0}, "tle": {"line1": "1 44793U 19078A   25355.88724716 -.00000059  00000+0  00000+0 0  9998", "line2": "2 44793  54.1000 306.0655 0006094  24.0092 336.0189  1.86232205 41341"}}, "geometry": {"type": "Point", "coordinates": [-59.405178520158664, -7.428152330184959]}}, {"type": "Feature", "properties": {"norad_id": 44794, "name": "BEIDOU-3 M21 (C43)", "group": "beidou", "lat": -52.49010691905231, "lon": -163.37067783425877, "alt_km": 21538.987443508726, "timestamp": "2025-12-22T22:44:21.240990+00:00", "meta": {"OBJECT_NAME": "BEIDOU-3 M21 (C43)", "OBJECT_ID": "2019-078B", "EPOCH": "2025-12-22T00:36:11.320992", "MEAN_MOTION": 1.86227905, "ECCENTRICITY": 0.00042975, "INCLINATION": 54.0732, "RA_OF_ASC_NODE": 306.0255, "ARG_OF_PERICENTER": 12.7987, "MEAN_ANOMALY": 347.2125, "EPHEMERIS_TYPE": 0, "CLASSIFICATION_TYPE": "U", "NORAD_CAT_ID": 44794, "ELEMENT_SET_NO": 999, "REV_AT_EPOCH": 4135, "BSTAR": 0, "MEAN_MOTION_DOT": -5.8e-07, "MEAN_MOTION_DDOT": 0}, "tle": {"line1": "1 44794U 19078B   25356.02513103 -.00000058  00000+0  00000+0 0  9991", "line2": "2 44794  54.0732 306.0255 0004297  12.7987 347.2125  1.86227905 41355"}}, "geometry": {"type": "Point", "coordinates": [-163.37067783425877, -52.49010691905231]}}, {"type": "Feature", "properties": {"norad_id": 44864, "name": "BEIDOU-3 M19 (C41)", "group": "beidou", "lat": 56.18454659044935, "lon": 166.29063334955742, "alt_km": 21571.741390560972, "timestamp": "2025-12-22T22:44:21.241002+00:00", "meta": {"OBJECT_NAME": "BEIDOU-3 M19 (C41)", "OBJECT_ID": "2019-090A", "EPOCH": "2025-12-22T06:47:40.337664", "MEAN_MOTION": 1.8623164, "ECCENTRICITY": 0.00183372, "INCLINATION": 56.4008, "RA_OF_ASC_NODE": 68.6452, "ARG_OF_PERICENTER": 285.1073, "MEAN_ANOMALY": 83.7045, "EPHEMERIS_TYPE": 0, "CLASSIFICATION_TYPE": "U", "NORAD_CAT_ID": 44864, "ELEMENT_SET_NO": 999, "REV_AT_EPOCH": 4094, "BSTAR": 0, "MEAN_MOTION_DOT": -2.9e-07, "MEAN_MOTION_DDOT": 0}, "tle": {"line1": "1 44864U 19090A   25356.28310576 -.00000029  00000+0  00000+0 0  9998", "line2": "2 44864  56.4008  68.6452 0018337 285.1073  83.7045  1.86231640 40945"}}, "geometry": {"type": "Point", "coordinates": [166.29063334955742, 56.18454659044935]}}, {"type": "Feature", "properties": {"norad_id": 44865, "name": "BEIDOU-3 M20 (C42)", "group": "beidou", "lat": -3.0672586663109227, "lon": -109.28476607116241, "alt_km": 21545.872285315894, "timestamp": "2025-12-22T22:44:21.241013+00:00", "meta": {"OBJECT_NAME": "BEIDOU-3 M20 (C42)", "OBJECT_ID": "2019-090B", "EPOCH": "2025-12-22T03:27:20.583072", "MEAN_MOTION": 1.86231562, "ECCENTRICITY": 0.00154748, "INCLINATION": 56.4023, "RA_OF_ASC_NODE": 68.6841, "ARG_OF_PERICENTER": 297.2268, "MEAN_ANOMALY": 67.9266, "EPHEMERIS_TYPE": 0, "CLASSIFICATION_TYPE": "U", "NORAD_CAT_ID": 44865, "ELEMENT_SET_NO": 999, "REV_AT_EPOCH": 4092, "BSTAR": 0, "MEAN_MOTION_DOT": -3e-07, "MEAN_MOTION_DDOT": 0}, "tle": {"line1": "1 44865U 19090B   25356.14398823 -.00000030  00000+0  00000+0 0  9997", "line2": "2 44865  56.4023  68.6841 0015474 297.2268  67.9266  1.86231562 40924"}}, "geometry": {"type": "Point", "coordinates": [-109.28476607116241, -3.0672586663109227]}}, {"type": "Feature", "properties": {"norad_id": 45344, "name": "BEIDOU-3 G2 (C60)", "group": "beidou", "lat": 2.394832305455452, "lon": 152.8671016702839, "alt_km": 35790.43282299166, "timestamp": "2025-12-22T22:44:21.241024+00:00", "meta": {"OBJECT_NAME": "BEIDOU-3 G2 (C60)", "OBJECT_ID": "2020-017A", "EPOCH": "2025-12-19T13:38:45.370752", "MEAN_MOTION": 1.00273166, "ECCENTRICITY": 0.0002079, "INCLINATION": 2.5096, "RA_OF_ASC_NODE": 44.0024, "ARG_OF_PERICENTER": 233.0917, "MEAN_ANOMALY": 96.0359, "EPHEMERIS_TYPE": 0, "CLASSIFICATION_TYPE": "U", "NORAD_CAT_ID": 45344, "ELEMENT_SET_NO": 999, "REV_AT_EPOCH": 2145, "BSTAR": 0, "MEAN_MOTION_DOT": -1.18e-06, "MEAN_MOTION_DDOT": 0}, "tle": {"line1": "1 45344U 20017A   25353.56858068 -.00000118  00000+0  00000+0 0  9993", "line2": "2 45344   2.5096  44.0024 0002079 233.0917  96.0359  1.00273166 21451"}}, "geometry": {"type": "Point", "coordinates": [152.8671016702839, 2.394832305455452]}}, {"type": "Feature", "properties": {"norad_id": 45807, "name": "BEIDOU-3 G3 (C61)", "group": "beidou", "lat": 1.8022943101958862, "lon": -176.58196502735336, "alt_km": 35813.384273908116, "timestamp": "2025-12-22T22:44:21.241037+00:00", "meta": {"OBJECT_NAME": "BEIDOU-3 G3 (C61)", "OBJECT_ID": "2020-040A", "EPOCH": "2025-12-22T13:41:28.900032", "MEAN_MOTION": 1.00269249, "ECCENTRICITY": 0.00065352, "INCLINATION": 2.0136, "RA_OF_ASC_NODE": 66.6637, "ARG_OF_PERICENTER": 309.2125, "MEAN_ANOMALY": 31.4295, "EPHEMERIS_TYPE": 0, "CLASSIFICATION_TYPE": "U", "NORAD_CAT_ID": 45807, "ELEMENT_SET_NO": 999, "REV_AT_EPOCH": 2029, "BSTAR": 0, "MEAN_MOTION_DOT": -3.33e-06, "MEAN_MOTION_DDOT": 0}, "tle": {"line1": "1 45807U 20040A   25356.57047338 -.00000333  00000+0  00000+0 0  9996", "line2": "2 45807   2.0136  66.6637 0006535 309.2125  31.4295  1.00269249 20293"}}, "geometry": {"type": "Point", "coordinates": [-176.58196502735336, 1.8022943101958862]}}, {"type": "Feature", "properties": {"norad_id": 56564, "name": "BEIDOU-3 G4 (C62)", "group": "beidou", "lat": -0.7633335503335977, "lon": -127.08844134529957, "alt_km": 35781.28852699089, "timestamp": "2025-12-22T22:44:21.241049+00:00", "meta": {"OBJECT_NAME": "BEIDOU-3 G4 (C62)", "OBJECT_ID": "2023-066A", "EPOCH": "2025-12-22T14:50:38.567616", "MEAN_MOTION": 1.00271266, "ECCENTRICITY": 0.00026585, "INCLINATION": 0.7946, "RA_OF_ASC_NODE": 302.8024, "ARG_OF_PERICENTER": 227.0981, "MEAN_ANOMALY": 304.2399, "EPHEMERIS_TYPE": 0, "CLASSIFICATION_TYPE": "U", "NORAD_CAT_ID": 56564, "ELEMENT_SET_NO": 999, "REV_AT_EPOCH": 962, "BSTAR": 0, "MEAN_MOTION_DOT": -8.9e-07, "MEAN_MOTION_DDOT": 0}, "tle": {"line1": "1 56564U 23066A   25356.61850194 -.00000089  00000+0  00000+0 0  9994", "line2": "2 56564   0.7946 302.8024 0002658 227.0981 304.2399  1.00271266  9625"}}, "geometry": {"type": "Point", "coordinates": [-127.08844134529957, -0.7633335503335977]}}, {"type": "Feature", "properties": {"norad_id": 58654, "name": "BEIDOU-3 M28 (C50)", "group": "beidou", "lat": -21.165792051808157, "lon": -96.35852626866601, "alt_km": 21528.163552348244, "timestamp": "2025-12-22T22:44:21.241060+00:00", "meta": {"OBJECT_NAME": "BEIDOU-3 M28 (C50)", "OBJECT_ID": "2023-207A", "EPOCH": "2025-12-22T02:28:45.780096", "MEAN_MOTION": 1.86229752, "ECCENTRICITY": 0.00028015, "INCLINATION": 55.5924, "RA_OF_ASC_NODE": 68.2843, "ARG_OF_PERICENTER": 274.1973, "MEAN_ANOMALY": 85.8199, "EPHEMERIS_TYPE": 0, "CLASSIFICATION_TYPE": "U", "NORAD_CAT_ID": 58654, "ELEMENT_SET_NO": 999, "REV_AT_EPOCH": 1354, "BSTAR": 0, "MEAN_MOTION_DOT": -3.2e-07, "MEAN_MOTION_DDOT": 0}, "tle": {"line1": "1 58654U 23207A   25356.10330764 -.00000032  00000+0  00000+0 0  9991", "line2": "2 58654  55.5924  68.2843 0002801 274.1973  85.8199  1.86229752 13540"}}, "geometry": {"type": "Point", "coordinates": [-96.35852626866601, -21.165792051808157]}}, {"type": "Feature", "properties": {"norad_id": 58655, "name": "BEIDOU-3 M26 (C48)", "group": "beidou", "lat": -15.027629978996167, "lon": 57.67466240568526, "alt_km": 21528.673171953425, "timestamp": "2025-12-22T22:44:21.241072+00:00", "meta": {"OBJECT_NAME": "BEIDOU-3 M26 (C48)", "OBJECT_ID": "2023-207B", "EPOCH": "2025-12-22T10:30:28.326240", "MEAN_MOTION": 1.86231247, "ECCENTRICITY": 0.00041599, "INCLINATION": 55.5947, "RA_OF_ASC_NODE": 68.2593, "ARG_OF_PERICENTER": 259.3765, "MEAN_ANOMALY": 100.6271, "EPHEMERIS_TYPE": 0, "CLASSIFICATION_TYPE": "U", "NORAD_CAT_ID": 58655, "ELEMENT_SET_NO": 999, "REV_AT_EPOCH": 1353, "BSTAR": 0, "MEAN_MOTION_DOT": -3e-07, "MEAN_MOTION_DDOT": 0}, "tle": {"line1": "1 58655U 23207B   25356.43782785 -.00000030  00000+0  00000+0 0  9990", "line2": "2 58655  55.5947  68.2593 0004159 259.3765 100.6271  1.86231247 13538"}}, "geometry": {"type": "Point", "coordinates": [57.67466240568526, -15.027629978996167]}}]}